0 COSMOS 374 DEB
1 04616U 70089C   13283.38553309  .00000146  00000-0  19032-3 0   848
2 04616 062.8208 241.7277 0932725 294.1570 143.1006 12.68928045973718
0 COSMOS 374 DEB
1 04616U 70089C   13286.83947972  .00000159  00000-0  20115-3 0   853
2 04616 062.8210 233.6921 0932661 294.5542 081.1841 12.68929476974155
0 COSMOS 374 DEB
1 04616U 70089C   13289.31657900  .00000193  00000-0  22999-3 0   869
2 04616 062.8210 227.9292 0932678 294.8324 236.9272 12.68932381974462
0 COSMOS 374 DEB
1 04616U 70089C   13292.29036207  .00000203  00000-0  23854-3 0   875
2 04616 062.8207 221.0111 0932611 295.1735 141.6076 12.68933932974849
0 COSMOS 374 DEB
1 04616U 70089C   13294.79965765  .00000187  00000-0  22505-3 0   886
2 04616 062.8204 215.1737 0932613 295.4570 084.4622 12.68936313975169
